NORAD_CAT_ID,OBJECT_NAME,OBJECT_TYPE,EPOCH,MEAN_MOTION,ECCENTRICITY,INCLINATION,RA_OF_ASC_NODE,ARG_OF_PERICENTER,MEAN_ANOMALY,BSTAR,MEAN_MOTION_DOT,MEAN_MOTION_DDOT,TLE_LINE0,TLE_LINE1,TLE_LINE2,SEMIMAJOR_AXIS,PERIOD,APOGEE,PERIGEE,DECAYED
49157.0,STARLINK-3051,PAYLOAD,2022-06-10 20:40:26,14.96724999,0.0003013,69.9968,122.7404,268.373,91.7083,0.00012147,1.299e-05,0.0,0 STARLINK-3051,1 49157U 21082AD  22161.86141787  .00001299  00000-0  12147-3 0  9992,2 49157  69.9968 122.7404 0003013 268.3730  91.7083 14.96724999 42690,6955.161,96.21,579.121,574.93,0.0
49157.0,STARLINK-3051,PAYLOAD,2022-06-11 14:19:04,14.96713645,0.0002883,69.9972,120.8915,268.7354,91.3474,-1.9883e-05,-3.19e-06,0.0,0 STARLINK-3051,1 49157U 21082AD  22162.59657928 -.00000319  00000-0 -19883-4 0  9991,2 49157  69.9972 120.8915 0002883 268.7354  91.3474 14.96713645 42800,6955.196,96.211,579.066,575.056,0.0
49157.0,STARLINK-3051,PAYLOAD,2022-06-11 20:44:01,14.96715729,0.0002887,69.9971,120.2189,268.5554,91.5273,-1.5671e-05,-2.71e-06,0.0,0 STARLINK-3051,1 49157U 21082AD  22162.86390576 -.00000271  00000-0 -15671-4 0  9992,2 49157  69.9971 120.2189 0002887 268.5554  91.5273 14.96715729 42848,6955.189,96.211,579.062,575.0459999999998,0.0
49157.0,STARLINK-3051,PAYLOAD,2022-06-12 06:21:26,14.96718164,0.0002914,69.9968,119.2102,268.5057,91.5767,-4.7858e-06,-1.46e-06,0.0,0 STARLINK-3051,1 49157U 21082AD  22163.26489486 -.00000146  00000-0 -47858-5 0  9990,2 49157  69.9968 119.2102 0002914 268.5057  91.5767 14.96718164 42907,6955.182,96.21,579.0740000000002,575.02,0.0
49157.0,STARLINK-3051,PAYLOAD,2022-06-12 14:22:38,14.96720805,0.0002878999999999,69.9973,118.3696,267.5162,92.5667,-4.069e-06,-1.38e-06,0.0,0 STARLINK-3051,1 49157U 21082AD  22163.59905256 -.00000138  00000-0 -40690-5 0  9992,2 49157  69.9973 118.3696 0002879 267.5162  92.5667 14.96720805 42957,6955.174,96.21,579.0409999999998,575.036,0.0
49157.0,STARLINK-3051,PAYLOAD,2022-06-13 08:01:14,14.9672261,0.0002778,69.9975,116.521,267.6569,92.4271,0.0001526,1.656e-05,0.0,0 STARLINK-3051,1 49157U 21082AD  22164.33419781  .00001656  00000-0  15260-3 0  9995,2 49157  69.9975 116.5210 0002778 267.6569  92.4271 14.96722610 43060,6955.168000000002,96.21,578.965,575.101,0.0
49157.0,STARLINK-3051,PAYLOAD,2022-06-13 14:26:11,14.96723547,0.0002757,69.9975,115.8486,267.3283,92.7559,0.0002109,2.324e-05,0.0,0 STARLINK-3051,1 49157U 21082AD  22164.60152309  .00002324  00000-0  21090-3 0  9996,2 49157  69.9975 115.8486 0002757 267.3283  92.7559 14.96723547 43101,6955.165,96.21,578.948,575.113,0.0
49157.0,STARLINK-3051,PAYLOAD,2022-06-14 06:28:34,14.96723343,0.0002856,69.9977,114.1673,266.5974,93.4858,0.00014954,1.621e-05,0.0,0 STARLINK-3051,1 49157U 21082AD  22165.26984354  .00001621  00000-0  14954-3 0  9992,2 49157  69.9977 114.1673 0002856 266.5974  93.4858 14.96723343 43206,6955.166,96.21,579.0169999999998,575.044,0.0
49157.0,STARLINK-3051,PAYLOAD,2022-06-14 14:29:45,14.96722111,0.000287,69.9976,113.3268,266.7535,93.3295,0.00010016,1.055e-05,0.0,0 STARLINK-3051,1 49157U 21082AD  22165.60400352  .00001055  00000-0  10016-3 0  9997,2 49157  69.9976 113.3268 0002870 266.7535  93.3295 14.96722111 43258,6955.17,96.21,579.031,575.038,0.0
49157.0,STARLINK-3051,PAYLOAD,2022-06-14 20:54:43,14.96721432,0.0002841,69.9978,112.6545,266.4723,93.6111,6.2278e-05,6.21e-06,0.0,0 STARLINK-3051,1 49157U 21082AD  22165.87133208  .00000621  00000-0  62278-4 0  9995,2 49157  69.9978 112.6545 0002841 266.4723  93.6111 14.96721432 43293,6955.172,96.21,579.013,575.061,0.0
49157.0,STARLINK-3051,PAYLOAD,2022-06-15 03:19:40,14.96716766,0.00029,69.9977,111.9822,266.8313,93.2513,-5.7442e-05,-7.49e-06,0.0,0 STARLINK-3051,1 49157U 21082AD  22166.13866426 -.00000749  00000-0 -57442-4 0  9990,2 49157  69.9977 111.9822 0002900 266.8313  93.2513 14.96716766 43338,6955.186,96.211,579.068,575.034,0.0
49157.0,STARLINK-3051,PAYLOAD,2022-06-15 06:32:09,14.96713443,0.0002915,69.9977,111.646,267.0174,93.0651,-9.9514e-05,-1.23e-05,0.0,0 STARLINK-3051,1 49157U 21082AD  22166.27233107 -.00001230  00000-0 -99514-4 0  9991,2 49157  69.9977 111.6460 0002915 267.0174  93.0651 14.96713443 43359,6955.196,96.211,579.089,575.034,0.0
49157.0,STARLINK-3051,PAYLOAD,2022-06-15 20:58:17,14.96718258,0.0003074,69.9971,110.1335,266.5339,93.5467,-4.8968e-05,-6.52e-06,0.0,0 STARLINK-3051,1 49157U 21082AD  22166.87381380 -.00000652  00000-0 -48968-4 0  9998,2 49157  69.9971 110.1335 0003074 266.5339  93.5467 14.96718258 43441,6955.182,96.21,579.185,574.909,0.0
49157.0,STARLINK-3051,PAYLOAD,2022-06-16 00:10:46,14.96718789,0.0003066,69.9972,109.7972,266.61,93.4708,-4.3949e-05,-5.95e-06,0.0,0 STARLINK-3051,1 49157U 21082AD  22167.00747694 -.00000595  00000-0 -43949-4 0  9998,2 49157  69.9972 109.7972 0003066 266.6100  93.4708 14.96718789 43469,6955.18,96.21,579.177,574.9119999999998,0.0
49157.0,STARLINK-3051,PAYLOAD,2022-06-19 13:11:23,14.9672532,0.0002848,69.9977,100.8888,269.1597,90.9235,-0.00028531,-3.356e-05,0.0,0 STARLINK-3051,1 49157U 21082AD  22170.54957468 -.00003356  00000-0 -28531-3 0  9990,2 49157  69.9977 100.8888 0002848 269.1597  90.9235 14.96725320 43991,6955.16,96.21,579.005,575.044,0.0
49157.0,STARLINK-3051,PAYLOAD,2022-06-19 21:12:34,14.96729495,0.0002781,69.9978,100.0475,268.5412,91.5428,-0.000364,-4.257e-05,0.0,0 STARLINK-3051,1 49157U 21082AD  22170.88373171 -.00004257  00000-0 -36400-3 0  9995,2 49157  69.9978 100.0475 0002781 268.5412  91.5428 14.96729495 44046,6955.147,96.21,578.946,575.078,0.0
49157.0,STARLINK-3051,PAYLOAD,2022-06-20 06:50:00,14.96711464,0.0002792,69.998,99.0386,265.5766,94.5073,0.00010665,1.129e-05,0.0,0 STARLINK-3051,1 49157U 21082AD  22171.28472654  .00001129  00000-0  10665-3 0  9994,2 49157  69.9980  99.0386 0002792 265.5766  94.5073 14.96711464 44101,6955.203,96.211,579.009,575.126,0.0
49157.0,STARLINK-3051,PAYLOAD,2022-06-20 19:39:54,14.96715193,0.0002891,69.9974,97.6941,264.9199,95.1629,0.0002003,2.202e-05,0.0,0 STARLINK-3051,1 49157U 21082AD  22171.81937691  .00002202  00000-0  20030-3 0  9990,2 49157  69.9974  97.6941 0002891 264.9199  95.1629 14.96715193 44183,6955.191,96.211,579.067,575.045,0.0
49157.0,STARLINK-3051,PAYLOAD,2022-06-21 11:42:17,14.96710387,0.000292,69.9969,96.013,264.7359,95.3466,0.00011386,1.212e-05,0.0,0 STARLINK-3051,1 49157U 21082AD  22172.48770365  .00001212  00000-0  11386-3 0  9991,2 49157  69.9969  96.0130 0002920 264.7359  95.3466 14.96710387 44281,6955.206,96.211,579.102,575.04,0.0
49157.0,STARLINK-3051,PAYLOAD,2022-06-21 21:19:43,14.96714479,0.0002909,69.9969,95.0044,264.4354,95.6473,0.00010544,1.115e-05,0.0,0 STARLINK-3051,1 49157U 21082AD  22172.88869392  .00001115  00000-0  10544-3 0  9991,2 49157  69.9969  95.0044 0002909 264.4354  95.6473 14.96714479 44347,6955.193,96.211,579.082,575.035,0.0
49157.0,STARLINK-3051,PAYLOAD,2022-06-22 11:45:52,14.96711431,0.0002772,69.9973,93.4917,264.6447,95.4395,-3.8204e-05,-5.29e-06,0.0,0 STARLINK-3051,1 49157U 21082AD  22173.49018670 -.00000529  00000-0 -38204-4 0  9998,2 49157  69.9973  93.4917 0002772 264.6447  95.4395 14.96711431 44432,6955.203,96.211,578.996,575.14,0.0
49157.0,STARLINK-3051,PAYLOAD,2022-06-22 19:47:03,14.96710924,0.0002926,69.999,92.6515,266.1063,93.9761,1.4147e-05,7e-07,0.0,0 STARLINK-3051,1 49157U 21082AD  22173.82434503  .00000070  00000-0  14147-4 0  9991,2 49157  69.9990  92.6515 0002926 266.1063  93.9761 14.96710924 44489,6955.204000000002,96.211,579.104,575.034,0.0
49157.0,STARLINK-3051,PAYLOAD,2022-06-23 11:49:25,14.96715847,0.0002913,69.9984,90.9703,262.653,97.4297,0.00011356,1.208e-05,0.0,0 STARLINK-3051,1 49157U 21082AD  22174.49266050  .00001208  00000-0  11356-3 0  9997,2 49157  69.9984  90.9703 0002913 262.6530  97.4297 14.96715847 44581,6955.189,96.211,579.08,575.028,0.0
49157.0,STARLINK-3051,PAYLOAD,2022-06-23 19:50:37,14.96720313,0.000288,69.9981,90.1299,262.7545,97.3286,8.7921e-05,9.15e-06,0.0,0 STARLINK-3051,1 49157U 21082AD  22174.82681769  .00000915  00000-0  87921-4 0  9998,2 49157  69.9981  90.1299 0002880 262.7545  97.3286 14.96720313 44637,6955.175,96.21,579.043,575.0369999999998,0.0
49157.0,STARLINK-3051,PAYLOAD,2022-06-24 05:28:03,14.96712179,0.0003022,69.9981,89.1213,262.8424,97.239,-2.3629e-05,-3.62e-06,0.0,0 STARLINK-3051,1 49157U 21082AD  22175.22781705 -.00000362  00000-0 -23629-4 0  9997,2 49157  69.9981  89.1213 0003022 262.8424  97.2390 14.96712179 44699,6955.2,96.211,579.1669999999998,574.964,0.0
49157.0,STARLINK-3051,PAYLOAD,2022-06-24 11:53:00,14.96711673,0.0002954,69.9981,88.4491,262.957,97.1252,-6.5392e-05,-8.400000000000001e-06,0.0,0 STARLINK-3051,1 49157U 21082AD  22175.49514682 -.00000840  00000-0 -65392-4 0  9998,2 49157  69.9981  88.4491 0002954 262.9570  97.1252 14.96711673 44734,6955.2019999999975,96.211,579.122,575.012,0.0
49157.0,STARLINK-3051,PAYLOAD,2022-06-24 21:30:26,14.96705064,0.0003031,69.9981,87.4406,262.8329,97.2485,1.0949e-05,3.4e-07,0.0,0 STARLINK-3051,1 49157U 21082AD  22175.89614317  .00000034  00000-0  10949-4 0  9999,2 49157  69.9981  87.4406 0003031 262.8329  97.2485 14.96705064 44799,6955.222,96.211,579.196,574.979,0.0
49157.0,STARLINK-3051,PAYLOAD,2022-06-25 11:56:34,14.96715767,0.0002972,69.9976,85.9279,262.7544,97.3277,3.7664e-05,3.39e-06,0.0,0 STARLINK-3051,1 49157U 21082AD  22176.49762475  .00000339  00000-0  37664-4 0  9996,2 49157  69.9976  85.9279 0002972 262.7544  97.3277 14.96715767 44886,6955.189,96.211,579.121,574.987,0.0
49157.0,STARLINK-3051,PAYLOAD,2022-06-25 21:34:00,14.96717705,0.0002946,69.9978,84.9193,262.7853,97.2971,1.5870999999999998e-05,9.000000000000002e-07,0.0,0 STARLINK-3051,1 49157U 21082AD  22176.89861590  .00000090  00000-0  15871-4 0  9998,2 49157  69.9978  84.9193 0002946 262.7853  97.2971 14.96717705 44947,6955.183000000001,96.211,579.097,574.999,0.0
